ONEWEB-0168             
1 48068U 21025AC  24002.37944923  .00000223  00000+0  57531-3 0  9995
2 48068  87.9009 138.6891 0001484  98.0014 262.1283 13.13468227135837
ONEWEB-0173             
1 48069U 21025AD  24002.44767363  .00000248  00000+0  64495-3 0  9999
2 48069  87.9008 138.6864 0001944  93.1223 267.0128 13.13471643136082
ONEWEB-0171             
1 48070U 21025AE  24002.78887199 -.00000263  00000+0 -75570-3 0  9993
2 48070  87.8999 138.6538 0001664  97.6887 262.4431 13.13468071135945
ONEWEB-0172             
1 48071U 21025AF  24002.38737054 -.00000052  00000+0 -17813-3 0  9996
2 48071  87.8996 138.6995 0001723 102.8619 257.2703 13.13470659136780
ONEWEB-0174             
1 48072U 21025AG  24002.44609481  .00000322  00000+0  84665-3 0  9993
2 48072  87.8997 138.7032 0001325  96.9550 263.1730 13.13469959136114
ONEWEB-0175             
1 48073U 21025AH  24002.39846409 -.00000271  00000+0 -77813-3 0  9993
2 48073  87.8999 138.7101 0001822 111.9101 248.2221 13.13468441135760
ONEWEB-0177             
1 48074U 21025AJ  24002.79204587 -.00000137  00000+0 -41143-3 0  9991
2 48074  87.9002 138.6373 0001762  87.5713 272.5618 13.13469046136007
ONEWEB-0178             
1 48075U 21025AK  24002.42875535  .00000225  00000+0  58159-3 0  9990
2 48075  87.9008 138.7157 0001683  95.0642 265.0679 13.13474601136009
